NORAD_CAT_ID,OBJECT_NAME,OBJECT_TYPE,EPOCH,MEAN_MOTION,ECCENTRICITY,INCLINATION,RA_OF_ASC_NODE,ARG_OF_PERICENTER,MEAN_ANOMALY,BSTAR,MEAN_MOTION_DOT,MEAN_MOTION_DDOT,TLE_LINE0,TLE_LINE1,TLE_LINE2,SEMIMAJOR_AXIS,PERIOD,APOGEE,PERIGEE,DECAYED
52533.0,STARLINK-3951,PAYLOAD,2022-07-30 06:00:00,15.08826418,0.0002106,53.2178,287.8341,30.9877,247.8366,0.00018934,2.725e-05,0.0,0 STARLINK-3951,1 52533U 22051A   22211.25001157  .00002725  00000-0  18934-3 0  9991,2 52533  53.2178 287.8341 0002106  30.9877 247.8366 15.08826418 12475,6917.922,95.438,541.244,538.33,0.0
52533.0,STARLINK-3951,PAYLOAD,2022-07-30 14:00:01,15.08809584,0.0002379999999999,53.2176,286.3396,28.073,262.3358,0.0016942,0.00026756,0.0,0 STARLINK-3951,1 52533U 22051A   22211.58334491  .00026756  00000-0  16942-2 0  9993,2 52533  53.2176 286.3396 0002380  28.0730 262.3358 15.08809584  1305,6917.973000000001,95.439,541.485,538.192,0.0
52533.0,STARLINK-3951,PAYLOAD,2022-07-30 22:00:00,15.08837128,0.0002268,53.2174,284.8419,28.2806,273.6965,-0.0015561,-0.00024967,0.0,0 STARLINK-3951,1 52533U 22051A   22211.91667824 -.00024967  00000-0 -15561-2 0  9999,2 52533  53.2174 284.8419 0002268  28.2806 273.6965 15.08837128  1307,6917.889,95.438,541.323,538.185,0.0
52533.0,STARLINK-3951,PAYLOAD,2022-07-31 06:00:02,15.08837738,0.0002215999999999,53.2174,283.3452,31.7929,281.8234,-0.00016146,-2.857e-05,0.0,0 STARLINK-3951,1 52533U 22051A   22212.25002315 -.00002857  00000-0 -16146-3 0  9990,2 52533  53.2174 283.3452 0002216  31.7929 281.8234 15.08837738 12620,6917.887,95.438,541.285,538.219,0.0
52533.0,STARLINK-3951,PAYLOAD,2022-07-31 14:00:01,15.08815752,0.0002485999999999,53.2173,281.8506,29.0557,296.0935,0.0020256,0.00032076,0.0,0 STARLINK-3951,1 52533U 22051A   22212.58334491  .00032076  00000-0  20256-2 0  9999,2 52533  53.2173 281.8506 0002486  29.0557 296.0935 15.08815752  1309,6917.955,95.439,541.539,538.1,0.0
52533.0,STARLINK-3951,PAYLOAD,2022-07-31 22:00:00,15.0884296,0.0002366,53.2173,280.3528,29.5643,307.1657,-0.0010972999999999,-0.00017712,0.0,0 STARLINK-3951,1 52533U 22051A   22212.91667824 -.00017712  00000-0 -10973-2 0  9992,2 52533  53.2173 280.3528 0002366  29.5643 307.1657 15.08842960  1301,6917.871,95.437,541.373,538.1,0.0
52533.0,STARLINK-3951,PAYLOAD,2022-08-01 14:00:01,15.08824604,0.0002591,53.2174,277.3614,30.0162,329.9102,0.0023645,0.00037529,0.0,0 STARLINK-3951,1 52533U 22051A   22213.58334491  .00037529  00000-0  23645-2 0  9993,2 52533  53.2174 277.3614 0002591  30.0162 329.9102 15.08824604 12828,6917.927,95.439,541.585,538.0,0.0
52533.0,STARLINK-3951,PAYLOAD,2022-08-01 22:00:00,15.08850373,0.0002453,53.2175,275.8634,31.1685,340.3539,-0.00051863,-8.536e-05,0.0,0 STARLINK-3951,1 52533U 22051A   22213.91667824 -.00008536  00000-0 -51863-3 0  9991,2 52533  53.2175 275.8634 0002453  31.1685 340.3539 15.08850373  1307,6917.849,95.437,541.411,538.0169999999998,0.0
52533.0,STARLINK-3951,PAYLOAD,2022-08-02 06:00:02,15.08864541,0.0002446,53.2177,274.367,33.3165,349.8658,-0.00092433,-0.0001498,0.0,0 STARLINK-3951,1 52533U 22051A   22214.25002315 -.00014980  00000-0 -92433-3 0  9995,2 52533  53.2177 274.3670 0002446  33.3165 349.8658 15.08864541 12920,6917.805,95.436,541.362,537.9780000000002,0.0
52533.0,STARLINK-3951,PAYLOAD,2022-08-02 14:00:01,15.08842332,0.0002648,53.2176,272.8721,30.0854,4.6552,0.00080315,0.00012518,0.0,0 STARLINK-3951,1 52533U 22051A   22214.58334491  .00012518  00000-0  80315-3 0  9993,2 52533  53.2176 272.8721 0002648  30.0854   4.6552 15.08842332  1305,6917.873000000001,95.437,541.57,537.906,0.0
52533.0,STARLINK-3951,PAYLOAD,2022-08-03 14:00:01,15.08814754,0.0002651,53.2178,268.3828,29.5267,40.0065,0.0027496,0.00043715,0.0,0 STARLINK-3951,1 52533U 22051A   22215.58334491  .00043715  00000-0  27496-2 0  9997,2 52533  53.2178 268.3828 0002651  29.5267  40.0065 15.08814754 13123,6917.958000000001,95.439,541.6569999999998,537.989,0.0
52533.0,STARLINK-3951,PAYLOAD,2022-08-03 22:00:01,15.08832676,0.0002453,53.2179,266.8847,31.7061,49.4795,0.00058974,9.108e-05,0.0,0 STARLINK-3951,1 52533U 22051A   22215.91668981  .00009108  00000-0  58974-3 0  9992,2 52533  53.2179 266.8847 0002453  31.7061  49.4795 15.08832676  1308,6917.903,95.438,541.465,538.071,0.0
52533.0,STARLINK-3951,PAYLOAD,2022-08-04 06:00:00,15.08859544,0.0002484,53.218,265.3887,33.2682,59.4383,-0.0016197,-0.00025988,0.0,0 STARLINK-3951,1 52533U 22051A   22216.25001157 -.00025988  00000-0 -16197-2 0  9992,2 52533  53.2180 265.3887 0002484  33.2682  59.4383 15.08859544 13229,6917.821,95.436,541.404,537.967,0.0
52533.0,STARLINK-3951,PAYLOAD,2022-08-04 14:00:01,15.08821897,0.000267,53.2177,263.8936,30.4571,73.8612,0.0027711,0.0004407,0.0,0 STARLINK-3951,1 52533U 22051A   22216.58334491  .00044070  00000-0  27711-2 0  9993,2 52533  53.2177 263.8936 0002670  30.4571  73.8612 15.08821897  1307,6917.936,95.439,541.648,537.9540000000002,0.0
52533.0,STARLINK-3951,PAYLOAD,2022-08-04 22:00:00,15.08834737,0.0002451,53.2178,262.3956,32.8979,83.0193,0.0010785999999999,0.00016917,0.0,0 STARLINK-3951,1 52533U 22051A   22216.91667824  .00016917  00000-0  10786-2 0  9992,2 52533  53.2178 262.3956 0002451  32.8979  83.0193 15.08834737 13328,6917.896,95.438,541.457,538.066,0.0
52533.0,STARLINK-3951,PAYLOAD,2022-08-05 14:00:01,15.08799788,0.0002627,53.2174,259.4045,29.5632,109.621,0.0026582,0.00042226,0.0,0 STARLINK-3951,1 52533U 22051A   22217.58335648  .00042226  00000-0  26582-2 0  9995,2 52533  53.2174 259.4045 0002627  29.5632 109.6210 15.08799788  1300,6918.003000000002,95.44,541.686,538.0509999999998,0.0
52533.0,STARLINK-3951,PAYLOAD,2022-08-05 22:00:00,15.08807949,0.0002419,53.2174,257.9066,32.3404,118.353,0.0014786,0.00023302,0.0,0 STARLINK-3951,1 52533U 22051A   22217.91667824  .00023302  00000-0  14786-2 0  9993,2 52533  53.2174 257.9066 0002419  32.3404 118.3530 15.08807949  1305,6917.978,95.44,541.5169999999998,538.17,0.0
52533.0,STARLINK-3951,PAYLOAD,2022-08-06 06:00:00,15.08840748,0.0002496,53.2174,256.411,33.9419,128.3137,-0.0019008,-0.00030415,0.0,0 STARLINK-3951,1 52533U 22051A   22218.25001157 -.00030415  00000-0 -19008-2 0  9999,2 52533  53.2174 256.4110 0002496  33.9419 128.3137 15.08840748 13522,6917.878000000002,95.438,541.47,538.016,0.0
52533.0,STARLINK-3951,PAYLOAD,2022-08-06 14:00:01,15.08807132,0.0002683,53.217,254.9157,31.1833,142.6581,0.0023831,0.0003781,0.0,0 STARLINK-3951,1 52533U 22051A   22218.58334491  .00037810  00000-0  23831-2 0  9998,2 52533  53.2170 254.9157 0002683  31.1833 142.6581 15.08807132  1305,6917.981,95.44,541.702,537.99,0.0
52533.0,STARLINK-3951,PAYLOAD,2022-08-06 22:00:00,15.08810451,0.000249,53.217,253.4177,33.9733,151.4478,0.0018797999999999,0.00029732,0.0,0 STARLINK-3951,1 52533U 22051A   22218.91667824  .00029732  00000-0  18798-2 0  9994,2 52533  53.2170 253.4177 0002490  33.9733 151.4478 15.08810451 13636,6917.971,95.439,541.558,538.113,0.0
52533.0,STARLINK-3951,PAYLOAD,2022-08-07 11:29:23,15.08832934,0.0002656,53.2182,250.8948,35.29,324.8268,-3.8377e-06,-3.5000000000000016e-06,0.0,0 STARLINK-3951,1 52533U 22051A   22219.47874660 -.00000350  00000-0 -38377-5 0  9999,2 52533  53.2182 250.8948 0002656  35.2900 324.8268 15.08832934 13645,6917.901999999999,95.438,541.604,537.93,0.0
52533.0,STARLINK-3951,PAYLOAD,2022-08-07 19:26:19,15.08832236,0.0002675,53.2182,249.408,35.881,324.2362,3.7769e-05,3.13e-06,0.0,0 STARLINK-3951,1 52533U 22051A   22219.80994721  .00000313  00000-0  37769-4 0  9997,2 52533  53.2182 249.4080 0002675  35.8810 324.2362 15.08832236 13692,6917.904,95.438,541.62,537.919,0.0
52533.0,STARLINK-3951,PAYLOAD,2022-08-08 14:00:01,15.08835965,0.0002874,53.2166,245.9379,34.1561,209.2556,0.0016029,0.00025312,0.0,0 STARLINK-3951,1 52533U 22051A   22220.58335648  .00025312  00000-0  16029-2 0  9991,2 52533  53.2166 245.9379 0002874  34.1561 209.2556 15.08835965  1306,6917.893,95.438,541.746,537.77,0.0
52533.0,STARLINK-3951,PAYLOAD,2022-08-08 22:00:00,15.08828956,0.0002712,53.2167,244.4398,37.3007,217.6593,0.0028301,0.00045029,0.0,0 STARLINK-3951,1 52533U 22051A   22220.91667824  .00045029  00000-0  28301-2 0  9995,2 52533  53.2167 244.4398 0002712  37.3007 217.6593 15.08828956  1309,6917.9140000000025,95.438,541.655,537.903,0.0
52533.0,STARLINK-3951,PAYLOAD,2022-08-09 14:00:01,15.08857933,0.0002925,53.2165,241.4488,34.5514,243.6196,-0.0019242,-0.00030799,0.0,0 STARLINK-3951,1 52533U 22051A   22221.58334491 -.00030799  00000-0 -19242-2 0  9994,2 52533  53.2165 241.4488 0002925  34.5514 243.6196 15.08857933  1307,6917.826,95.436,541.714,537.6669999999998,0.0
52533.0,STARLINK-3951,PAYLOAD,2022-08-09 22:00:00,15.08810222,0.0002733,53.2167,239.9507,37.3501,252.43400000000003,0.0029094999999999,0.00046285,0.0,0 STARLINK-3951,1 52533U 22051A   22221.91667824  .00046285  00000-0  29095-2 0  9992,2 52533  53.2167 239.9507 0002733  37.3501 252.4340 15.08810222  1306,6917.971,95.439,541.727,537.946,0.0
52533.0,STARLINK-3951,PAYLOAD,2022-08-10 06:00:00,15.08849199,0.0002883999999999,53.2167,238.4555,37.3045,264.0577,-0.0014537,-0.00023357,0.0,0 STARLINK-3951,1 52533U 22051A   22222.25001157 -.00023357  00000-0 -14537-2 0  9993,2 52533  53.2167 238.4555 0002884  37.3045 264.0577 15.08849199 14134,6917.852,95.437,541.712,537.722,0.0
52533.0,STARLINK-3951,PAYLOAD,2022-08-10 14:00:01,15.08842634,0.0002969,53.2164,236.9595,35.4817,277.4733,2.2323000000000006e-05,6.7e-07,0.0,0 STARLINK-3951,1 52533U 22051A   22222.58334491  .00000067  00000-0  22323-4 0  9994,2 52533  53.2164 236.9595 0002969  35.4817 277.4733 15.08842634  1302,6917.871999999999,95.437,541.7909999999998,537.683,0.0
52533.0,STARLINK-3951,PAYLOAD,2022-08-10 22:00:00,15.08818132,0.0002783,53.2166,235.4615,39.4712,285.0905,0.0029621,0.00047143,0.0,0 STARLINK-3951,1 52533U 22051A   22222.91667824  .00047143  00000-0  29621-2 0  9992,2 52533  53.2166 235.4615 0002783  39.4712 285.0905 15.08818132 14231,6917.946999999999,95.439,541.737,537.887,0.0
